IRIDIUM 150             
1 43257U 18030J   25336.47068792  .00000135  00000+0  41088-4 0  9998
2 43257  86.3980  12.7021 0002249  99.2714 260.8736 14.34218659401964
IRIDIUM 143             
1 43258U 18030K   25336.38189374  .00000374  00000+0  12631-3 0  9995
2 43258  86.3985  12.8242 0002310 101.7418 258.4037 14.34219998401880
IRIDIUM 161             
1 43478U 18047C   25336.47738477  .00000406  00000+0  11462-3 0  9998
2 43478  86.4542 170.6646 0002714  77.8804 282.2701 14.43302433396765
IRIDIUM 152             
1 43479U 18047D   25336.49414681  .00000134  00000+0  40689-4 0  9991
2 43479  86.3983 170.5191 0001886  84.3833 275.7578 14.34217150394298
IRIDIUM 147             
1 43480U 18047E   25336.50048500  .00000147  00000+0  45252-4 0  9993
2 43480  86.3986 170.5183 0002104  85.1918 274.9518 14.34217546394295
IRIDIUM 110             
1 43481U 18047F   25336.50682742  .00000125  00000+0  37599-4 0  9997
2 43481  86.3988 170.6021 0001961  72.8187 287.3223 14.34217051394282
IRIDIUM 162             
1 43482U 18047G   25336.47110434  .00000209  00000+0  56246-4 0  9991
2 43482  86.4507 170.5616 0001664  87.5944 272.5447 14.43281577396756
IRIDIUM 160             
1 43569U 18061A   25336.45266715 -.00000024  00000+0 -15788-4 0  9998
2 43569  86.3972 139.0493 0001964  84.6628 275.4792 14.34217260385177
